STARLINK-31085          
1 58609U 23200W   25212.22628766  .00000847  00000+0  77743-4 0  9996
2 58609  43.0034 293.3489 0001404 264.9322  95.1360 15.02537159 90314
STARLINK-31089          
1 58610U 23200X   25211.68459222  .00005059  00000+0  38948-3 0  9999
2 58610  43.0024 296.9647 0001680 274.7658  85.2992 15.02520040 90195
STARLINK-31061          
1 58611U 23200Y   25211.69113882 -.00000602  00000+0 -29503-4 0  9999
2 58611  43.0039 296.2116 0001395 269.0631  91.0052 15.02541409 90203
STARLINK-31054          
1 58619U 23203B   25211.79378306  .00001328  00000+0  57772-4 0  9998
2 58619  43.0003 240.3889 0000851 287.1355  72.9404 15.27569256 89629
STARLINK-31134          
1 58621U 23203D   25212.07716872  .00001010  00000+0  46221-4 0  9992
2 58621  43.0015 239.0755 0001527 285.2721  74.7962 15.27581326 90835
STARLINK-31133          
1 58622U 23203E   25212.11684971 -.00157752  00000+0 -59160-2 0  9993
2 58622  43.0009 238.5101 0000757 280.4926  79.5841 15.27191469 89670
STARLINK-31068          
1 58623U 23203F   25212.11300344  .00000034  00000+0  10759-4 0  9994
2 58623  42.9995 238.4803 0001107 272.4490  87.6235 15.27577761 90849
STARLINK-31129          
1 58624U 23203G   25211.78350179 -.00000032  00000+0  83716-5 0  9991
2 58624  43.0008 240.3052 0001075 278.1876  81.8853 15.27575637 89626
STARLINK-30774          
1 58625U 23203H   25211.77964487  .00000646  00000+0  33012-4 0  9997
2 58625  42.9999 240.2760 0001140 276.4387  83.6335 15.27579451 89623
STARLINK-31086          
1 58626U 23203J   25211.55778568  .00001957  00000+0  80623-4 0  9993
2 58626  43.0004 241.1922 0001140 265.0244  95.0477 15.27580915 89596
STARLINK-31065          
1 58627U 23203K   25211.76550946  .00002744  00000+0  10920-3 0  9992
2 58627  42.9988 240.1792 0001409 271.9029  88.1662 15.27585535 89621
STARLINK-31092          
1 58628U 23203L   25211.77578974  .00001467  00000+0  62811-4 0  9993
2 58628  42.9986 240.2462 0001262 276.3308  83.7400 15.27577932 89624
STARLINK-31091          
1 58629U 23203M   25211.56900818  .00001275  00000+0  58563-4 0  9993
2 58629  43.0013 243.8637 0001431 272.2226  87.8461 15.25909828 89569
STARLINK-31084          
1 58630U 23203N   25212.15587063  .00000639  00000+0  34276-4 0  9992
2 58630  43.0004 240.5282 0000982 262.4474  97.6265 15.25906090 90883
STARLINK-31064          
1 58631U 23203P   25212.08586654  .00003936  00000+0  16008-3 0  9995
2 58631  43.0043 240.8634 0003292 276.5168  83.5308 15.25942881 90817
STARLINK-31081          
1 58632U 23203Q   25212.08364656 -.00000595  00000+0 -12888-4 0  9995
2 58632  43.0021 240.8457 0002329 279.6384  80.4204 15.25897354 90816
STARLINK-31022          
1 58633U 23203R   25211.56448144  .00001257  00000+0  57891-4 0  9990
2 58633  43.0007 243.8318 0001541 273.2661  86.8014 15.25910618 90798
