[{"OBJECT_NAME":"STARLINK-31085","OBJECT_ID":"2023-200W","EPOCH":"2025-07-31T05:25:51.253824","MEAN_MOTION":15.02537159,"ECCENTRICITY":0.0001404,"INCLINATION":43.0034,"RA_OF_ASC_NODE":293.3489,"ARG_OF_PERICENTER":264.9322,"MEAN_ANOMALY":95.136,"EPHEMERIS_TYPE":0,"CLASSIFICATION_TYPE":"U","NORAD_CAT_ID":58609,"ELEMENT_SET_NO":999,"REV_AT_EPOCH":9031,"BSTAR":7.7743e-5,"MEAN_MOTION_DOT":8.47e-6,"MEAN_MOTION_DDOT":0},{"OBJECT_NAME":"STARLINK-31089","OBJECT_ID":"2023-200X","EPOCH":"2025-07-30T16:25:48.767808","MEAN_MOTION":15.0252004,"ECCENTRICITY":0.000168,"INCLINATION":43.0024,"RA_OF_ASC_NODE":296.9647,"ARG_OF_PERICENTER":274.7658,"MEAN_ANOMALY":85.2992,"EPHEMERIS_TYPE":0,"CLASSIFICATION_TYPE":"U","NORAD_CAT_ID":58610,"ELEMENT_SET_NO":999,"REV_AT_EPOCH":9019,"BSTAR":0.00038948,"MEAN_MOTION_DOT":5.059e-5,"MEAN_MOTION_DDOT":0},{"OBJECT_NAME":"STARLINK-31061","OBJECT_ID":"2023-200Y","EPOCH":"2025-07-30T16:35:14.394048","MEAN_MOTION":15.02541409,"ECCENTRICITY":0.0001395,"INCLINATION":43.0039,"RA_OF_ASC_NODE":296.2116,"ARG_OF_PERICENTER":269.0631,"MEAN_ANOMALY":91.0052,"EPHEMERIS_TYPE":0,"CLASSIFICATION_TYPE":"U","NORAD_CAT_ID":58611,"ELEMENT_SET_NO":999,"REV_AT_EPOCH":9020,"BSTAR":-2.9503e-5,"MEAN_MOTION_DOT":-6.02e-6,"MEAN_MOTION_DDOT":0},{"OBJECT_NAME":"STARLINK-31054","OBJECT_ID":"2023-203B","EPOCH":"2025-07-30T19:03:02.856384","MEAN_MOTION":15.27569256,"ECCENTRICITY":8.51e-5,"INCLINATION":43.0003,"RA_OF_ASC_NODE":240.3889,"ARG_OF_PERICENTER":287.1355,"MEAN_ANOMALY":72.9404,"EPHEMERIS_TYPE":0,"CLASSIFICATION_TYPE":"U","NORAD_CAT_ID":58619,"ELEMENT_SET_NO":999,"REV_AT_EPOCH":8962,"BSTAR":5.7772e-5,"MEAN_MOTION_DOT":1.328e-5,"MEAN_MOTION_DDOT":0},{"OBJECT_NAME":"STARLINK-31134","OBJECT_ID":"2023-203D","EPOCH":"2025-07-31T01:51:07.377408","MEAN_MOTION":15.27581326,"ECCENTRICITY":0.0001527,"INCLINATION":43.0015,"RA_OF_ASC_NODE":239.0755,"ARG_OF_PERICENTER":285.2721,"MEAN_ANOMALY":74.7962,"EPHEMERIS_TYPE":0,"CLASSIFICATION_TYPE":"U","NORAD_CAT_ID":58621,"ELEMENT_SET_NO":999,"REV_AT_EPOCH":9083,"BSTAR":4.6221e-5,"MEAN_MOTION_DOT":1.01e-5,"MEAN_MOTION_DDOT":0},{"OBJECT_NAME":"STARLINK-31133","OBJECT_ID":"2023-203E","EPOCH":"2025-07-31T02:48:15.814944","MEAN_MOTION":15.27191469,"ECCENTRICITY":7.57e-5,"INCLINATION":43.0009,"RA_OF_ASC_NODE":238.5101,"ARG_OF_PERICENTER":280.4926,"MEAN_ANOMALY":79.5841,"EPHEMERIS_TYPE":0,"CLASSIFICATION_TYPE":"U","NORAD_CAT_ID":58622,"ELEMENT_SET_NO":999,"REV_AT_EPOCH":8967,"BSTAR":-0.005916,"MEAN_MOTION_DOT":-0.00157752,"MEAN_MOTION_DDOT":0},{"OBJECT_NAME":"STARLINK-31068","OBJECT_ID":"2023-203F","EPOCH":"2025-07-31T02:42:43.497216","MEAN_MOTION":15.27577761,"ECCENTRICITY":0.0001107,"INCLINATION":42.9995,"RA_OF_ASC_NODE":238.4803,"ARG_OF_PERICENTER":272.449,"MEAN_ANOMALY":87.6235,"EPHEMERIS_TYPE":0,"CLASSIFICATION_TYPE":"U","NORAD_CAT_ID":58623,"ELEMENT_SET_NO":999,"REV_AT_EPOCH":9084,"BSTAR":1.0759e-5,"MEAN_MOTION_DOT":3.4e-7,"MEAN_MOTION_DDOT":0},{"OBJECT_NAME":"STARLINK-31129","OBJECT_ID":"2023-203G","EPOCH":"2025-07-30T18:48:14.554656","MEAN_MOTION":15.27575637,"ECCENTRICITY":0.0001075,"INCLINATION":43.0008,"RA_OF_ASC_NODE":240.3052,"ARG_OF_PERICENTER":278.1876,"MEAN_ANOMALY":81.8853,"EPHEMERIS_TYPE":0,"CLASSIFICATION_TYPE":"U","NORAD_CAT_ID":58624,"ELEMENT_SET_NO":999,"REV_AT_EPOCH":8962,"BSTAR":8.3716e-6,"MEAN_MOTION_DOT":-3.2e-7,"MEAN_MOTION_DDOT":0},{"OBJECT_NAME":"STARLINK-30774","OBJECT_ID":"2023-203H","EPOCH":"2025-07-30T18:42:41.316768","MEAN_MOTION":15.27579451,"ECCENTRICITY":0.000114,"INCLINATION":42.9999,"RA_OF_ASC_NODE":240.276,"ARG_OF_PERICENTER":276.4387,"MEAN_ANOMALY":83.6335,"EPHEMERIS_TYPE":0,"CLASSIFICATION_TYPE":"U","NORAD_CAT_ID":58625,"ELEMENT_SET_NO":999,"REV_AT_EPOCH":8962,"BSTAR":3.3012e-5,"MEAN_MOTION_DOT":6.46e-6,"MEAN_MOTION_DDOT":0},{"OBJECT_NAME":"STARLINK-31086","OBJECT_ID":"2023-203J","EPOCH":"2025-07-30T13:23:12.682752","MEAN_MOTION":15.27580915,"ECCENTRICITY":0.000114,"INCLINATION":43.0004,"RA_OF_ASC_NODE":241.1922,"ARG_OF_PERICENTER":265.0244,"MEAN_ANOMALY":95.0477,"EPHEMERIS_TYPE":0,"CLASSIFICATION_TYPE":"U","NORAD_CAT_ID":58626,"ELEMENT_SET_NO":999,"REV_AT_EPOCH":8959,"BSTAR":8.0623e-5,"MEAN_MOTION_DOT":1.957e-5,"MEAN_MOTION_DDOT":0},{"OBJECT_NAME":"STARLINK-31065","OBJECT_ID":"2023-203K","EPOCH":"2025-07-30T18:22:20.017344","MEAN_MOTION":15.27585535,"ECCENTRICITY":0.0001409,"INCLINATION":42.9988,"RA_OF_ASC_NODE":240.1792,"ARG_OF_PERICENTER":271.9029,"MEAN_ANOMALY":88.1662,"EPHEMERIS_TYPE":0,"CLASSIFICATION_TYPE":"U","NORAD_CAT_ID":58627,"ELEMENT_SET_NO":999,"REV_AT_EPOCH":8962,"BSTAR":0.0001092,"MEAN_MOTION_DOT":2.744e-5,"MEAN_MOTION_DDOT":0},{"OBJECT_NAME":"STARLINK-31092","OBJECT_ID":"2023-203L","EPOCH":"2025-07-30T18:37:08.233536","MEAN_MOTION":15.27577932,"ECCENTRICITY":0.0001262,"INCLINATION":42.9986,"RA_OF_ASC_NODE":240.2462,"ARG_OF_PERICENTER":276.3308,"MEAN_ANOMALY":83.74,"EPHEMERIS_TYPE":0,"CLASSIFICATION_TYPE":"U","NORAD_CAT_ID":58628,"ELEMENT_SET_NO":999,"REV_AT_EPOCH":8962,"BSTAR":6.2811e-5,"MEAN_MOTION_DOT":1.467e-5,"MEAN_MOTION_DDOT":0},{"OBJECT_NAME":"STARLINK-31091","OBJECT_ID":"2023-203M","EPOCH":"2025-07-30T13:39:22.306752","MEAN_MOTION":15.25909828,"ECCENTRICITY":0.0001431,"INCLINATION":43.0013,"RA_OF_ASC_NODE":243.8637,"ARG_OF_PERICENTER":272.2226,"MEAN_ANOMALY":87.8461,"EPHEMERIS_TYPE":0,"CLASSIFICATION_TYPE":"U","NORAD_CAT_ID":58629,"ELEMENT_SET_NO":999,"REV_AT_EPOCH":8956,"BSTAR":5.8563e-5,"MEAN_MOTION_DOT":1.275e-5,"MEAN_MOTION_DDOT":0},{"OBJECT_NAME":"STARLINK-31084","OBJECT_ID":"2023-203N","EPOCH":"2025-07-31T03:44:27.222432","MEAN_MOTION":15.2590609,"ECCENTRICITY":9.82e-5,"INCLINATION":43.0004,"RA_OF_ASC_NODE":240.5282,"ARG_OF_PERICENTER":262.4474,"MEAN_ANOMALY":97.6265,"EPHEMERIS_TYPE":0,"CLASSIFICATION_TYPE":"U","NORAD_CAT_ID":58630,"ELEMENT_SET_NO":999,"REV_AT_EPOCH":9088,"BSTAR":3.4276e-5,"MEAN_MOTION_DOT":6.39e-6,"MEAN_MOTION_DDOT":0},{"OBJECT_NAME":"STARLINK-31064","OBJECT_ID":"2023-203P","EPOCH":"2025-07-31T02:03:38.869056","MEAN_MOTION":15.25942881,"ECCENTRICITY":0.0003292,"INCLINATION":43.0043,"RA_OF_ASC_NODE":240.8634,"ARG_OF_PERICENTER":276.5168,"MEAN_ANOMALY":83.5308,"EPHEMERIS_TYPE":0,"CLASSIFICATION_TYPE":"U","NORAD_CAT_ID":58631,"ELEMENT_SET_NO":999,"REV_AT_EPOCH":9081,"BSTAR":0.00016008,"MEAN_MOTION_DOT":3.936e-5,"MEAN_MOTION_DDOT":0},{"OBJECT_NAME":"STARLINK-31081","OBJECT_ID":"2023-203Q","EPOCH":"2025-07-31T02:00:27.062784","MEAN_MOTION":15.25897354,"ECCENTRICITY":0.0002329,"INCLINATION":43.0021,"RA_OF_ASC_NODE":240.8457,"ARG_OF_PERICENTER":279.6384,"MEAN_ANOMALY":80.4204,"EPHEMERIS_TYPE":0,"CLASSIFICATION_TYPE":"U","NORAD_CAT_ID":58632,"ELEMENT_SET_NO":999,"REV_AT_EPOCH":9081,"BSTAR":-1.2888e-5,"MEAN_MOTION_DOT":-5.95e-6,"MEAN_MOTION_DDOT":0},{"OBJECT_NAME":"STARLINK-31022","OBJECT_ID":"2023-203R","EPOCH":"2025-07-30T13:32:51.196416","MEAN_MOTION":15.25910618,"ECCENTRICITY":0.0001541,"INCLINATION":43.0007,"RA_OF_ASC_NODE":243.8318,"ARG_OF_PERICENTER":273.2661,"MEAN_ANOMALY":86.8014,"EPHEMERIS_TYPE":0,"CLASSIFICATION_TYPE":"U","NORAD_CAT_ID":58633,"ELEMENT_SET_NO":999,"REV_AT_EPOCH":9079,"BSTAR":5.7891e-5,"MEAN_MOTION_DOT":1.257e-5,"MEAN_MOTION_DDOT":0}]
